[{"OBJECT_NAME":"LEMUR-2-STAR-FOX","OBJECT_ID":"2025-009CR","EPOCH":"2026-03-09T19:30:12.149568","MEAN_MOTION":15.00891969,"ECCENTRICITY":0.00025005,"INCLINATION":97.7038,"RA_OF_ASC_NODE":151.2547,"ARG_OF_PERICENTER":152.191,"MEAN_ANOMALY":207.9448,"EPHEMERIS_TYPE":0,"CLASSIFICATION_TYPE":"U","NORAD_CAT_ID":62696,"ELEMENT_SET_NO":999,"REV_AT_EPOCH":6264,"BSTAR":0.000772765,"MEAN_MOTION_DOT":9.785e-5,"MEAN_MOTION_DDOT":0},{"OBJECT_NAME":"STARLINK-36205","OBJECT_ID":"2025-298Z","EPOCH":"2026-03-09T22:26:49.176096","MEAN_MOTION":14.9914569,"ECCENTRICITY":0.00028056,"INCLINATION":70.0015,"RA_OF_ASC_NODE":13.8601,"ARG_OF_PERICENTER":265.4327,"MEAN_ANOMALY":94.6512,"EPHEMERIS_TYPE":0,"CLASSIFICATION_TYPE":"U","NORAD_CAT_ID":67098,"ELEMENT_SET_NO":999,"REV_AT_EPOCH":1325,"BSTAR":4.5969871e-5,"MEAN_MOTION_DOT":4.67e-6,"MEAN_MOTION_DDOT":0}]
